{"type": "FeatureCollection", "features": [ {"type": "Feature", "properties": {"norad_id": 41836, "name": "HIMAWARI-9", "group": "weather", "lat": -0.023803417091754365, "lon": 176.18002457850767, "alt_km": 35793.03018258402, "timestamp": "2025-12-02T21:34:00.915608+00:00", "meta": {"OBJECT_NAME": "HIMAWARI-9", "OBJECT_ID": "2016-064A", "EPOCH": "2025-12-02T11:21:38.666880", "MEAN_MOTION": 1.00267593, "ECCENTRICITY": 0.0002385, "INCLINATION": 0.0198, "RA_OF_ASC_NODE": 328.7015, "ARG_OF_PERICENTER": 332.4974, "MEAN_ANOMALY": 81.5255, "EPHEMERIS_TYPE": 0, "CLASSIFICATION_TYPE": "U", "NORAD_CAT_ID": 41836, "ELEMENT_SET_NO": 999, "REV_AT_EPOCH": 3323, "BSTAR": 0, "MEAN_MOTION_DOT": 0, "MEAN_MOTION_DDOT": 0}, "tle": {"line1": "1 41836U 16064A   25336.47336420  .00000000  00000+0  00000+0 0  9995", "line2": "2 41836   0.0198 328.7015 0002385 332.4974  81.5255  1.00267593 33238"}}, "geometry": {"type": "Point", "coordinates": [176.18002457850767, -0.023803417091754365]}}, {"type": "Feature", "properties": {"norad_id": 41866, "name": "GOES 16", "group": "weather", "lat": -0.024475778198555977, "lon": -69.17463507769641, "alt_km": 35774.68362486445, "timestamp": "2025-12-02T21:34:00.915620+00:00", "meta": {"OBJECT_NAME": "GOES 16", "OBJECT_ID": "2016-071A", "EPOCH": "2025-12-02T09:32:38.891040", "MEAN_MOTION": 1.00270605, "ECCENTRICITY": 0.0003373, "INCLINATION": 0.0559, "RA_OF_ASC_NODE": 108.1075, "ARG_OF_PERICENTER": 147.9923, "MEAN_ANOMALY": 213.8971, "EPHEMERIS_TYPE": 0, "CLASSIFICATION_TYPE": "U", "NORAD_CAT_ID": 41866, "ELEMENT_SET_NO": 999, "REV_AT_EPOCH": 3313, "BSTAR": 0, "MEAN_MOTION_DOT": -7e-07, "MEAN_MOTION_DDOT": 0}, "tle": {"line1": "1 41866U 16071A   25336.39767235 -.00000070  00000+0  00000+0 0  9997", "line2": "2 41866   0.0559 108.1075 0003373 147.9923 213.8971  1.00270605 33131"}}, "geometry": {"type": "Point", "coordinates": [-69.17463507769641, -0.024475778198555977]}}, {"type": "Feature", "properties": {"norad_id": 41882, "name": "FENGYUN 4A", "group": "weather", "lat": 1.7634547650985362, "lon": 159.13117414912145, "alt_km": 35774.94329676485, "timestamp": "2025-12-02T21:34:00.915633+00:00", "meta": {"OBJECT_NAME": "FENGYUN 4A", "OBJECT_ID": "2016-077A", "EPOCH": "2025-12-02T07:31:31.000800", "MEAN_MOTION": 1.00278848, "ECCENTRICITY": 0.0005003, "INCLINATION": 1.8205, "RA_OF_ASC_NODE": 82.4911, "ARG_OF_PERICENTER": 141.2194, "MEAN_ANOMALY": 84.2874, "EPHEMERIS_TYPE": 0, "CLASSIFICATION_TYPE": "U", "NORAD_CAT_ID": 41882, "ELEMENT_SET_NO": 999, "REV_AT_EPOCH": 3295, "BSTAR": 0, "MEAN_MOTION_DOT": -3.36e-06, "MEAN_MOTION_DDOT": 0}, "tle": {"line1": "1 41882U 16077A   25336.31355325 -.00000336  00000+0  00000+0 0  9991", "line2": "2 41882   1.8205  82.4911 0005003 141.2194  84.2874  1.00278848 32956"}}, "geometry": {"type": "Point", "coordinates": [159.13117414912145, 1.7634547650985362]}}, {"type": "Feature", "properties": {"norad_id": 41884, "name": "CYGFM05", "group": "weather", "lat": 5.653967293257541, "lon": -76.75844186682507, "alt_km": 422.4959813503574, "timestamp": "2025-12-02T21:34:00.915645+00:00", "meta": {"OBJECT_NAME": "CYGFM05", "OBJECT_ID": "2016-078A", "EPOCH": "2025-12-02T11:32:39.880032", "MEAN_MOTION": 15.47053382, "ECCENTRICITY": 0.0009422, "INCLINATION": 34.9578, "RA_OF_ASC_NODE": 114.114, "ARG_OF_PERICENTER": 84.3374, "MEAN_ANOMALY": 275.8422, "EPHEMERIS_TYPE": 0, "CLASSIFICATION_TYPE": "U", "NORAD_CAT_ID": 41884, "ELEMENT_SET_NO": 999, "REV_AT_EPOCH": 49817, "BSTAR": 0.00043635, "MEAN_MOTION_DOT": 0.00022801, "MEAN_MOTION_DDOT": 0}, "tle": {"line1": "1 41884U 16078A   25336.48101713  .00022801  00000+0  43635-3 0  9997", "line2": "2 41884  34.9578 114.1140 0009422  84.3374 275.8422 15.47053382498178"}}, "geometry": {"type": "Point", "coordinates": [-76.75844186682507, 5.653967293257541]}}, {"type": "Feature", "properties": {"norad_id": 41885, "name": "CYGFM04", "group": "weather", "lat": -24.52438018461988, "lon": 45.62694526060075, "alt_km": 424.44636434255335, "timestamp": "2025-12-02T21:34:00.915656+00:00", "meta": {"OBJECT_NAME": "CYGFM04", "OBJECT_ID": "2016-078B", "EPOCH": "2025-12-02T10:56:40.034688", "MEAN_MOTION": 15.49676535, "ECCENTRICITY": 0.0008456, "INCLINATION": 34.9338, "RA_OF_ASC_NODE": 89.3454, "ARG_OF_PERICENTER": 113.8373, "MEAN_ANOMALY": 246.3236, "EPHEMERIS_TYPE": 0, "CLASSIFICATION_TYPE": "U", "NORAD_CAT_ID": 41885, "ELEMENT_SET_NO": 999, "REV_AT_EPOCH": 49834, "BSTAR": 0.0011812, "MEAN_MOTION_DOT": 0.00068139, "MEAN_MOTION_DDOT": 0}, "tle": {"line1": "1 41885U 16078B   25336.45601892  .00068139  00000+0  11812-2 0  9993", "line2": "2 41885  34.9338  89.3454 0008456 113.8373 246.3236 15.49676535498345"}}, "geometry": {"type": "Point", "coordinates": [45.62694526060075, -24.52438018461988]}}, {"type": "Feature", "properties": {"norad_id": 41886, "name": "CYGFM02", "group": "weather", "lat": -34.500169814830876, "lon": 5.049553011202173, "alt_km": 422.20298747084144, "timestamp": "2025-12-02T21:34:00.915668+00:00", "meta": {"OBJECT_NAME": "CYGFM02", "OBJECT_ID": "2016-078C", "EPOCH": "2025-12-02T11:06:18.343584", "MEAN_MOTION": 15.51041432, "ECCENTRICITY": 0.0010174, "INCLINATION": 34.9427, "RA_OF_ASC_NODE": 87.7595, "ARG_OF_PERICENTER": 113.6681, "MEAN_ANOMALY": 246.511, "EPHEMERIS_TYPE": 0, "CLASSIFICATION_TYPE": "U", "NORAD_CAT_ID": 41886, "ELEMENT_SET_NO": 999, "REV_AT_EPOCH": 49847, "BSTAR": 0.00046713, "MEAN_MOTION_DOT": 0.00028135, "MEAN_MOTION_DDOT": 0}, "tle": {"line1": "1 41886U 16078C   25336.46271231  .00028135  00000+0  46713-3 0  9996", "line2": "2 41886  34.9427  87.7595 0010174 113.6681 246.5110 15.51041432498475"}}, "geometry": {"type": "Point", "coordinates": [5.049553011202173, -34.500169814830876]}}, {"type": "Feature", "properties": {"norad_id": 41887, "name": "CYGFM01", "group": "weather", "lat": -7.921436556695589, "lon": -54.69705515519324, "alt_km": 426.07072535345196, "timestamp": "2025-12-02T21:34:00.915679+00:00", "meta": {"OBJECT_NAME": "CYGFM01", "OBJECT_ID": "2016-078D", "EPOCH": "2025-12-02T11:26:43.766016", "MEAN_MOTION": 15.4761582, "ECCENTRICITY": 0.0009082, "INCLINATION": 34.9407, "RA_OF_ASC_NODE": 116.5624, "ARG_OF_PERICENTER": 75.2425, "MEAN_ANOMALY": 284.9302, "EPHEMERIS_TYPE": 0, "CLASSIFICATION_TYPE": "U", "NORAD_CAT_ID": 41887, "ELEMENT_SET_NO": 999, "REV_AT_EPOCH": 49811, "BSTAR": 0.00044968, "MEAN_MOTION_DOT": 0.00023967, "MEAN_MOTION_DDOT": 0}, "tle": {"line1": "1 41887U 16078D   25336.47689544  .00023967  00000+0  44968-3 0  9996", "line2": "2 41887  34.9407 116.5624 0009082  75.2425 284.9302 15.47615820498116"}}, "geometry": {"type": "Point", "coordinates": [-54.69705515519324, -7.921436556695589]}}, {"type": "Feature", "properties": {"norad_id": 41888, "name": "CYGFM08", "group": "weather", "lat": -11.303361604759832, "lon": -66.45497541871725, "alt_km": 420.95681723656435, "timestamp": "2025-12-02T21:34:00.915689+00:00", "meta": {"OBJECT_NAME": "CYGFM08", "OBJECT_ID": "2016-078E", "EPOCH": "2025-12-02T11:25:37.884288", "MEAN_MOTION": 15.4878828, "ECCENTRICITY": 0.0010648, "INCLINATION": 34.9443, "RA_OF_ASC_NODE": 99.6762, "ARG_OF_PERICENTER": 101.7862, "MEAN_ANOMALY": 258.4054, "EPHEMERIS_TYPE": 0, "CLASSIFICATION_TYPE": "U", "NORAD_CAT_ID": 41888, "ELEMENT_SET_NO": 999, "REV_AT_EPOCH": 49834, "BSTAR": 0.00045423, "MEAN_MOTION_DOT": 0.00025246, "MEAN_MOTION_DDOT": 0}, "tle": {"line1": "1 41888U 16078E   25336.47613292  .00025246  00000+0  45423-3 0  9993", "line2": "2 41888  34.9443  99.6762 0010648 101.7862 258.4054 15.48788280498348"}}, "geometry": {"type": "Point", "coordinates": [-66.45497541871725, -11.303361604759832]}}, {"type": "Feature", "properties": {"norad_id": 41890, "name": "CYGFM07", "group": "weather", "lat": 7.276102710920131, "lon": -104.58798370370182, "alt_km": 411.98875196514473, "timestamp": "2025-12-02T21:34:00.915700+00:00", "meta": {"OBJECT_NAME": "CYGFM07", "OBJECT_ID": "2016-078G", "EPOCH": "2025-12-02T11:34:17.333184", "MEAN_MOTION": 15.49360249, "ECCENTRICITY": 0.0008905, "INCLINATION": 34.9468, "RA_OF_ASC_NODE": 88.675, "ARG_OF_PERICENTER": 120.3689, "MEAN_ANOMALY": 239.7914, "EPHEMERIS_TYPE": 0, "CLASSIFICATION_TYPE": "U", "NORAD_CAT_ID": 41890, "ELEMENT_SET_NO": 999, "REV_AT_EPOCH": 49836, "BSTAR": 0.00046041, "MEAN_MOTION_DOT": 0.00026098, "MEAN_MOTION_DDOT": 0}, "tle": {"line1": "1 41890U 16078G   25336.48214506  .00026098  00000+0  46041-3 0  9995", "line2": "2 41890  34.9468  88.6750 0008905 120.3689 239.7914 15.49360249498361"}}, "geometry": {"type": "Point", "coordinates": [-104.58798370370182, 7.276102710920131]}}, {"type": "Feature", "properties": {"norad_id": 41891, "name": "CYGFM03", "group": "weather", "lat": 2.923633007224913, "lon": 92.0535303911196, "alt_km": 418.8368444398611, "timestamp": "2025-12-02T21:34:00.915720+00:00", "meta": {"OBJECT_NAME": "CYGFM03", "OBJECT_ID": "2016-078H", "EPOCH": "2025-12-02T10:43:10.051104", "MEAN_MOTION": 15.49261535, "ECCENTRICITY": 0.0008261, "INCLINATION": 34.9418, "RA_OF_ASC_NODE": 90.819, "ARG_OF_PERICENTER": 106.7096, "MEAN_ANOMALY": 253.4533, "EPHEMERIS_TYPE": 0, "CLASSIFICATION_TYPE": "U", "NORAD_CAT_ID": 41891, "ELEMENT_SET_NO": 999, "REV_AT_EPOCH": 49833, "BSTAR": 0.0004579, "MEAN_MOTION_DOT": 0.00025858, "MEAN_MOTION_DDOT": 0}, "tle": {"line1": "1 41891U 16078H   25336.44664411  .00025858  00000+0  45790-3 0  9999", "line2": "2 41891  34.9418  90.8190 0008261 106.7096 253.4533 15.49261535498330"}}, "geometry": {"type": "Point", "coordinates": [92.0535303911196, 2.923633007224913]}}]}